{
  "type": "FeatureCollection",
  "features": [
    {
      "type": "Feature",
      "geometry": {
        "type": "LineString",
        "coordinates": [
          [
            -115.162888,
            36.108333
          ],
          [
            -115.162289,
            36.108867
          ],
          [
            -115.160526,
            36.110486
          ],
          [
            -115.1604381,
            36.1106087
          ],
          [
            -115.1603518,
            36.1107482
          ],
          [
            -115.1603662,
            36.110938
          ],
          [
            -115.1605628,
            36.1110852
          ],
          [
            -115.1608265,
            36.1111704
          ],
          [
            -115.1610902,
            36.1111704
          ],
          [
            -115.1614977,
            36.111089
          ],
          [
            -115.1618957,
            36.1108644
          ],
          [
            -115.162278,
            36.110572
          ],
          [
            -115.1624814,
            36.110466
          ],
          [
            -115.1627068,
            36.1104427
          ],
          [
            -115.1629129,
            36.110435
          ],
          [
            -115.163076,
            36.1104776
          ],
          [
            -115.1634212,
            36.1106054
          ],
          [
            -115.1636849,
            36.1108185
          ],
          [
            -115.1639342,
            36.1111361
          ],
          [
            -115.164081,
            36.11876
          ],
          [
            -115.164082,
            36.119035
          ],
          [
            -115.164023,
            36.119152
          ],
          [
            -115.163838,
            36.11919
          ],
          [
            -115.162932,
            36.119187
          ],
          [
            -115.162026,
            36.119184
          ],
          [
            -115.1616399,
            36.1191747
          ],
          [
            -115.1612225,
            36.1191699
          ],
          [
            -115.161152,
            36.1191842
          ],
          [
            -115.1610697,
            36.1192411
          ],
          [
            -115.1607228,
            36.1194548
          ],
          [
            -115.1605112,
            36.11964
          ],
          [
            -115.1603348,
            36.1198727
          ],
          [
            -115.1601828,
            36.1201663
          ],
          [
            -115.1601177,
            36.1204834
          ],
          [
            -115.1601118,
            36.1207351
          ],
          [
            -115.1603,
            36.1207683
          ],
          [
            -115.1605586,
            36.1208538
          ],
          [
            -115.1607232,
            36.121001
          ],
          [
            -115.1607585,
            36.1211815
          ],
          [
            -115.1607291,
            36.1212764
          ],
          [
            -115.1606109,
            36.121526
          ],
          [
            -115.1604404,
            36.1217729
          ],
          [
            -115.1604052,
            36.1220483
          ],
          [
            -115.1604052,
            36.1222002
          ],
          [
            -115.1610887,
            36.1222229
          ],
          [
            -115.1622233,
            36.1222513
          ],
          [
            -115.164106,
            36.1223214
          ],
          [
            -115.165245,
            36.122522
          ],
          [
            -115.165627,
            36.122671
          ],
          [
            -115.166049,
            36.123022
          ],
          [
            -115.166411,
            36.123607
          ],
          [
            -115.166965,
            36.124659
          ],
          [
            -115.167321,
            36.124962
          ],
          [
            -115.16769,
            36.125167
          ],
          [
            -115.168065,
            36.125279
          ],
          [
            -115.169159,
            36.125492
          ],
          [
            -115.169376,
            36.125433
          ],
          [
            -115.169429,
            36.125279
          ],
          [
            -115.170169,
            36.124218
          ],
          [
            -115.171142,
            36.122745
          ],
          [
            -115.171849,
            36.121548
          ],
          [
            -115.17235,
            36.120307
          ],
          [
            -115.172666,
            36.119312
          ],
          [
            -115.172857,
            36.118128
          ],
          [
            -115.17289,
            36.117356
          ],
          [
            -115.172906,
            36.116465
          ],
          [
            -115.172895,
            36.114683
          ],
          [
            -115.173029,
            36.109001
          ],
          [
            -115.173015,
            36.108714
          ],
          [
            -115.172965,
            36.108623
          ],
          [
            -115.172811,
            36.108612
          ],
          [
            -115.172573,
            36.108606
          ],
          [
            -115.172383,
            36.108448
          ],
          [
            -115.172126,
            36.108235
          ],
          [
            -115.171977,
            36.108159
          ],
          [
            -115.171739,
            36.108106
          ],
          [
            -115.164064,
            36.108085
          ],
          [
            -115.163794,
            36.108096
          ],
          [
            -115.163139,
            36.108185
          ],
          [
            -115.162888,
            36.108333
          ]
        ]
      },
      "properties": {
        "id": "us-2023",
        "Location": "Las Vegas",
        "Name": "Las Vegas Street Circuit",
        "opened": 2023,
        "firstgp": 2023,
        "length": 6166,
        "altitude": 610
      },
      "id": "us-2023"
    },
    {
      "type": "Feature",
      "geometry": {
        "type": "LineString",
        "coordinates": [
          [
            -115.163981,
            36.110815
          ],
          [
            -115.164081,
            36.11876
          ]
        ]
      },
      "properties": {
        "drs": 1,
        "Name": "DRS Zone 1"
      },
      "id": "f7d9211216f0d719721a9d99f06ef367"
    },
    {
      "type": "Feature",
      "geometry": {
        "type": "LineString",
        "coordinates": [
          [
            -115.172906,
            36.116465
          ],
          [
            -115.172895,
            36.114683
          ],
          [
            -115.173029,
            36.109001
          ]
        ]
      },
      "properties": {
        "drs": 2,
        "Name": "DRS Zone 2"
      },
      "id": "367bf1bd778fba54f784f6b348255772"
    },
    {
      "type": "Feature",
      "geometry": {
        "type": "LineString",
        "coordinates": [
          [
            -115.162888,
            36.108333
          ],
          [
            -115.162289,
            36.108867
          ],
          [
            -115.160526,
            36.110486
          ],
          [
            -115.1604381,
            36.1106087
          ],
          [
            -115.1603518,
            36.1107482
          ],
          [
            -115.1603662,
            36.110938
          ],
          [
            -115.1605628,
            36.1110852
          ],
          [
            -115.1608265,
            36.1111704
          ],
          [
            -115.1610902,
            36.1111704
          ],
          [
            -115.1614977,
            36.111089
          ],
          [
            -115.1618957,
            36.1108644
          ],
          [
            -115.162278,
            36.110572
          ],
          [
            -115.1624814,
            36.110466
          ],
          [
            -115.1627068,
            36.1104427
          ],
          [
            -115.1629129,
            36.110435
          ],
          [
            -115.163076,
            36.1104776
          ],
          [
            -115.1634212,
            36.1106054
          ],
          [
            -115.1636849,
            36.1108185
          ],
          [
            -115.1639342,
            36.1111361
          ],
          [
            -115.164081,
            36.11876
          ],
          [
            -115.164082,
            36.119035
          ],
          [
            -115.164023,
            36.119152
          ],
          [
            -115.163838,
            36.11919
          ],
          [
            -115.162932,
            36.119187
          ]
        ]
      },
      "properties": {
        "sector": 1,
        "Name": "Sector 1"
      },
      "id": "7fb7d6f6d5b4d923b9387ad97cf430ed"
    },
    {
      "type": "Feature",
      "geometry": {
        "type": "LineString",
        "coordinates": [
          [
            -115.162932,
            36.119187
          ],
          [
            -115.162026,
            36.119184
          ],
          [
            -115.1616399,
            36.1191747
          ],
          [
            -115.1612225,
            36.1191699
          ],
          [
            -115.161152,
            36.1191842
          ],
          [
            -115.1610697,
            36.1192411
          ],
          [
            -115.1607228,
            36.1194548
          ],
          [
            -115.1605112,
            36.11964
          ],
          [
            -115.1603348,
            36.1198727
          ],
          [
            -115.1601828,
            36.1201663
          ],
          [
            -115.1601177,
            36.1204834
          ],
          [
            -115.1601118,
            36.1207351
          ],
          [
            -115.1603,
            36.1207683
          ],
          [
            -115.1605586,
            36.1208538
          ],
          [
            -115.1607232,
            36.121001
          ],
          [
            -115.1607585,
            36.1211815
          ],
          [
            -115.1607291,
            36.1212764
          ],
          [
            -115.1606109,
            36.121526
          ],
          [
            -115.1604404,
            36.1217729
          ],
          [
            -115.1604052,
            36.1220483
          ],
          [
            -115.1604052,
            36.1222002
          ],
          [
            -115.1610887,
            36.1222229
          ],
          [
            -115.1622233,
            36.1222513
          ],
          [
            -115.164106,
            36.1223214
          ],
          [
            -115.165245,
            36.122522
          ],
          [
            -115.165627,
            36.122671
          ],
          [
            -115.166049,
            36.123022
          ],
          [
            -115.166411,
            36.123607
          ],
          [
            -115.166965,
            36.124659
          ],
          [
            -115.167321,
            36.124962
          ],
          [
            -115.16769,
            36.125167
          ],
          [
            -115.168065,
            36.125279
          ],
          [
            -115.169159,
            36.125492
          ],
          [
            -115.169376,
            36.125433
          ],
          [
            -115.169429,
            36.125279
          ],
          [
            -115.170169,
            36.124218
          ]
        ]
      },
      "properties": {
        "sector": 2,
        "Name": "Sector 2"
      },
      "id": "1719f37dd9e3f47a2a935cd00460c523"
    },
    {
      "type": "Feature",
      "geometry": {
        "type": "LineString",
        "coordinates": [
          [
            -115.170169,
            36.124218
          ],
          [
            -115.171142,
            36.122745
          ],
          [
            -115.171849,
            36.121548
          ],
          [
            -115.17235,
            36.120307
          ],
          [
            -115.172666,
            36.119312
          ],
          [
            -115.172857,
            36.118128
          ],
          [
            -115.17289,
            36.117356
          ],
          [
            -115.172906,
            36.116465
          ],
          [
            -115.172895,
            36.114683
          ],
          [
            -115.173029,
            36.109001
          ],
          [
            -115.173015,
            36.108714
          ],
          [
            -115.172965,
            36.108623
          ],
          [
            -115.172811,
            36.108612
          ],
          [
            -115.172573,
            36.108606
          ],
          [
            -115.172383,
            36.108448
          ],
          [
            -115.172126,
            36.108235
          ],
          [
            -115.171977,
            36.108159
          ],
          [
            -115.171739,
            36.108106
          ],
          [
            -115.164064,
            36.108085
          ],
          [
            -115.163794,
            36.108096
          ],
          [
            -115.163139,
            36.108185
          ],
          [
            -115.162888,
            36.108333
          ]
        ]
      },
      "properties": {
        "sector": 3,
        "Name": "Sector 3"
      },
      "id": "537685f6da8bc216986d156ec8073b47"
    },
    {
      "type": "Feature",
      "geometry": {
        "type": "Point",
        "coordinates": [
          -115.16154,
          36.110965
        ]
      },
      "properties": {
        "drs_detection": 1,
        "Name": "Drs Detection Zone 1"
      },
      "id": "37e66d7304fb34235f5c3fb5aff7ee2d"
    },
    {
      "type": "Feature",
      "geometry": {
        "type": "Point",
        "coordinates": [
          -115.172297,
          36.120409
        ]
      },
      "properties": {
        "drs_detection": 2,
        "Name": "Drs Detection Zone 2"
      },
      "id": "b01405d156ca899b95b015a3eb13f1d8"
    },
    {
      "type": "Feature",
      "geometry": {
        "type": "Point",
        "coordinates": [
          -115.172998,
          36.109737
        ]
      },
      "properties": {
        "speed_trap": 1,
        "Name": "Speed Trap 1"
      },
      "id": "f6dae042abdb5b0e23d1e637f2e7848e"
    }
  ]
}